YUNHAI-2 02C            
1 59282U 24052C   26157.27853405  .00000029  00000+0  76039-4 0  9993
2 59282  50.0080 188.6572 0006226 125.9569 234.1924 14.27959743113248
YUNHAI-2 02D            
1 59283U 24052D   26157.25411824  .00000093  00000+0  10180-3 0  9992
2 59283  50.0084 308.6926 0004750 182.8562 177.2326 14.27992814116832
YUNHAI-2 02E            
1 59284U 24052E   26157.27981929  .00000073  00000+0  93920-4 0  9995
2 59284  50.0118   9.0090 0011921  20.8394 339.3004 14.27960845105377
YUNHAI-2 02F            
1 59285U 24052F   26157.23491234  .00000050  00000+0  84590-4 0  9995
2 59285  50.0118 249.3643 0005303 144.2149 215.9122 14.27986321117591
MOLA                    
1 59289U 24053B   26155.97056595  .00048824  00000+0  63383-3 0  9993
2 59289  49.9882 357.7903 0003174 236.4208 123.6459 15.58280544119596
AEROCUBE 16A            
1 59290U 24053C   26156.84037938  .00019494  00000+0  43527-3 0  9991
2 59290  49.9896  22.4155 0002740 276.7566  83.3085 15.43489551119354
AEROCUBE 16B            
1 59291U 24053D   26156.32836017  .00014932  00000+0  33626-3 0  9991
2 59291  49.9923  25.2303 0002585 268.9072  91.1595 15.43442206119353
STARLINK-31463          
1 59296U 24056A   26157.11574995 -.00001134  00000+0 -31681-4 0  9993
2 59296  43.0016  87.3820 0001368 271.5739  88.4956 15.27579311124724
STARLINK-31487          
1 59297U 24056B   26157.10385383  .00000515  00000+0  28218-4 0  9996
2 59297  43.0004  91.6057 0001123 266.4713  93.6010 15.27578457124792
STARLINK-31386          
1 59298U 24056C   26157.15124098  .00001657  00000+0  69697-4 0  9990
2 59298  43.0030  91.1045 0001467 279.9912  80.0774 15.27591346124682
STARLINK-31409          
1 59299U 24056D   26157.08938649  .00004407  00000+0  16944-3 0  9990
2 59299  42.9993  84.5761 0001183 274.9874  85.0842 15.27608002124877
STARLINK-31489          
1 59300U 24056E   26157.20121338  .00015202  00000+0  56043-3 0  9995
2 59300  43.0030  90.6201 0001521 265.6415  94.4263 15.27601338124691
STARLINK-31502          
1 59301U 24056F   26157.06370384  .00000021  00000+0  10291-4 0  9996
2 59301  43.0045  84.3770 0001791 264.4945  95.5702 15.27575464124750
STARLINK-31447          
1 59302U 24056G   26157.08843286  .00000239  00000+0  18200-4 0  9994
2 59302  43.0027  91.4892 0001528 267.7576  92.3101 15.27575423124673
STARLINK-31504          
1 59303U 24056H   26157.09614321 -.00001221  00000+0 -34868-4 0  9994
2 59303  43.0027  91.5492 0000976 103.4305 256.6656 15.27570246124671
STARLINK-31474          
1 59304U 24056J   26157.09454217 -.00001607  00000+0 -48904-4 0  9995
2 59304  43.0034  84.6168 0001936 278.0253  82.0379 15.27566108124755
STARLINK-31500          
1 59305U 24056K   26157.09228611  .00000637  00000+0  32685-4 0  9992
2 59305  43.0030  91.5195 0001384 269.1767  90.8926 15.27582601124679
STARLINK-31480          
1 59306U 24056L   26152.30494642 -.00000130  00000+0  48181-5 0  9999
2 59306  43.0030 118.3680 0001322 265.8038  94.2663 15.27576061123941
STARLINK-31282          
1 59307U 24056M   26157.09999425  .00000871  00000+0  41160-4 0  9990
2 59307  42.9996  91.5742 0000765 237.1277 122.9501 15.27581190124679
STARLINK-31485          
1 59308U 24056N   26157.10770756  .00000259  00000+0  18916-4 0  9990
2 59308  42.9907  91.6335 0000518 259.2983 100.7810 15.27578974124679
STARLINK-31455          
1 59309U 24056P   26157.10819575 -.00000846  00000+0 -21223-4 0  9993
2 59309  43.0020  88.1826 0001309 272.4486  87.6216 15.27576405124713
STARLINK-31475          
1 59310U 24056Q   26157.10562795 -.00001821  00000+0 -56717-4 0  9994
2 59310  43.0007  88.1610 0000722 278.4199  81.6571 15.27564241124832
STARLINK-31445          
1 59312U 24056S   26157.10033828 -.00001101  00000+0 -30497-4 0  9994
2 59312  43.0050  98.5011 0000782 284.8009  75.2756 15.27562467124594
STARLINK-31495          
1 59313U 24056T   26157.06142305  .00128167  00000+0  39148-2 0  9991
2 59313  42.9989  83.4884 0006245 204.8544 155.2009 15.32687069124762
STARLINK-31477          
1 59314U 24056U   26156.52007332 -.00000415  00000+0 -55743-5 0  9991
2 59314  43.0040  87.1814 0000862 242.6098 117.4666 15.27568473124670
STARLINK-31446          
1 59315U 24056V   26157.00120677 -.00000500  00000+0 -86435-5 0  9991
2 59315  43.0033  91.7010 0001162 287.9776  72.0949 15.27571397124669
STARLINK-31479          
1 59316U 24056W   26157.13418635  .00002123  00000+0  86625-4 0  9991
2 59316  43.0017  95.2940 0001451 266.3768  93.6917 15.27595276124639
STARLINK-31349          
1 59317U 24056X   26157.08198987  .00002169  00000+0  88291-4 0  9992
2 59317  43.0042  91.4414 0000880 281.7662  78.3091 15.27594838124749
STARLINK-31464          
1 59318U 24056Y   26157.00891437  .00001237  00000+0  54491-4 0  9995
2 59318  43.0034  91.7538 0001621 307.1835  52.8868 15.27576974124661
STARLINK-31402          
1 59320U 24057A   26156.77811665  .00079457  00000+0  26970-2 0  9995
2 59320  43.0008   1.8748 0004531 269.4951  90.5382 15.29557747123840
