OBJECT_NAME,OBJECT_ID,EPOCH,MEAN_MOTION,ECCENTRICITY,INCLINATION,RA_OF_ASC_NODE,ARG_OF_PERICENTER,MEAN_ANOMALY,EPHEMERIS_TYPE,CLASSIFICATION_TYPE,NORAD_CAT_ID,ELEMENT_SET_NO,REV_AT_EPOCH,BSTAR,MEAN_MOTION_DOT,MEAN_MOTION_DDOT
YUNHAI-2 02C,2024-052C,2026-06-06T06:41:05.341920,14.27959743,.00062265,50.0080,188.6572,125.9569,234.1924,0,U,59282,999,11324,.76039187E-4,.29E-6,0
YUNHAI-2 02D,2024-052D,2026-06-06T06:05:55.815936,14.27992814,.00047503,50.0084,308.6926,182.8562,177.2326,0,U,59283,999,11683,.1018002E-3,.93E-6,0
YUNHAI-2 02E,2024-052E,2026-06-06T06:42:56.386656,14.27960845,.00119216,50.0118,9.0090,20.8394,339.3004,0,U,59284,999,10537,.9392006E-4,.73E-6,0
YUNHAI-2 02F,2024-052F,2026-06-06T05:38:16.426176,14.27986321,.00053034,50.0118,249.3643,144.2149,215.9122,0,U,59285,999,11759,.84590071E-4,.5E-6,0
MOLA,2024-053B,2026-06-04T23:17:36.898080,15.58280544,.0003174,49.9882,357.7903,236.4208,123.6459,0,U,59289,999,11959,.63382796E-3,.48824E-3,0
AEROCUBE 16A,2024-053C,2026-06-05T20:10:08.778432,15.43489551,.00027405,49.9896,22.4155,276.7566,83.3085,0,U,59290,999,11935,.43527175E-3,.19494E-3,0
AEROCUBE 16B,2024-053D,2026-06-05T07:52:50.318688,15.43442206,.00025854,49.9923,25.2303,268.9072,91.1595,0,U,59291,999,11935,.33626111E-3,.14932E-3,0
STARLINK-31463,2024-056A,2026-06-06T02:46:40.795680,15.27579311,.0001368,43.0016,87.3820,271.5739,88.4956,0,U,59296,999,12472,-.31680917E-4,-.1134E-4,0
STARLINK-31487,2024-056B,2026-06-06T02:29:32.970912,15.27578457,.00011233,43.0004,91.6057,266.4713,93.6010,0,U,59297,999,12479,.28218091E-4,.515E-5,0
STARLINK-31386,2024-056C,2026-06-06T03:37:47.220672,15.27591346,.00014675,43.0030,91.1045,279.9912,80.0774,0,U,59298,999,12468,.6969735E-4,.1657E-4,0
STARLINK-31409,2024-056D,2026-06-06T02:08:42.992736,15.27608002,.00011839,42.9993,84.5761,274.9874,85.0842,0,U,59299,999,12487,.16944078E-3,.4407E-4,0
STARLINK-31489,2024-056E,2026-06-06T04:49:44.836032,15.27601338,.00015211,43.0030,90.6201,265.6415,94.4263,0,U,59300,999,12469,.56043141E-3,.15202E-3,0
STARLINK-31502,2024-056F,2026-06-06T01:31:44.011776,15.27575464,.00017919,43.0045,84.3770,264.4945,95.5702,0,U,59301,999,12475,.10291405E-4,.21E-6,0
STARLINK-31447,2024-056G,2026-06-06T02:07:20.599104,15.27575423,.00015286,43.0027,91.4892,267.7576,92.3101,0,U,59302,999,12467,.18199712E-4,.239E-5,0
STARLINK-31504,2024-056H,2026-06-06T02:18:26.773344,15.27570246,.00009766,43.0027,91.5492,103.4305,256.6656,0,U,59303,999,12467,-.34868277E-4,-.1221E-4,0
STARLINK-31474,2024-056J,2026-06-06T02:16:08.443488,15.27566108,.00019364,43.0034,84.6168,278.0253,82.0379,0,U,59304,999,12475,-.48903529E-4,-.1607E-4,0
STARLINK-31500,2024-056K,2026-06-06T02:12:53.519904,15.27582601,.00013842,43.0030,91.5195,269.1767,90.8926,0,U,59305,999,12467,.32685246E-4,.637E-5,0
STARLINK-31480,2024-056L,2026-06-01T07:19:07.370688,15.27576061,.0001322,43.0030,118.3680,265.8038,94.2663,0,U,59306,999,12394,.4818106E-5,-.13E-5,0
STARLINK-31282,2024-056M,2026-06-06T02:23:59.503200,15.27581190,.00007653,42.9996,91.5742,237.1277,122.9501,0,U,59307,999,12467,.41159602E-4,.871E-5,0
STARLINK-31485,2024-056N,2026-06-06T02:35:05.933184,15.27578974,.00005189,42.9907,91.6335,259.2983,100.7810,0,U,59308,999,12467,.18916265E-4,.259E-5,0
STARLINK-31455,2024-056P,2026-06-06T02:35:48.112800,15.27576405,.00013093,43.0020,88.1826,272.4486,87.6216,0,U,59309,999,12471,-.21223466E-4,-.846E-5,0
STARLINK-31475,2024-056Q,2026-06-06T02:32:06.254880,15.27564241,.00007228,43.0007,88.1610,278.4199,81.6571,0,U,59310,999,12483,-.56716783E-4,-.1821E-4,0
STARLINK-31445,2024-056S,2026-06-06T02:24:29.227392,15.27562467,.0000782,43.0050,98.5011,284.8009,75.2756,0,U,59312,999,12459,-.30497292E-4,-.1101E-4,0
STARLINK-31495,2024-056T,2026-06-06T01:28:26.951520,15.32687069,.00062452,42.9989,83.4884,204.8544,155.2009,0,U,59313,999,12476,.3914777E-2,.128167E-2,0
STARLINK-31477,2024-056U,2026-06-05T12:28:54.334848,15.27568473,.00008626,43.0040,87.1814,242.6098,117.4666,0,U,59314,999,12467,-.5574312E-5,-.415E-5,0
STARLINK-31446,2024-056V,2026-06-06T00:01:44.264928,15.27571397,.00011628,43.0033,91.7010,287.9776,72.0949,0,U,59315,999,12466,-.8643506E-5,-.5E-5,0
STARLINK-31479,2024-056W,2026-06-06T03:13:13.700640,15.27595276,.00014511,43.0017,95.2940,266.3768,93.6917,0,U,59316,999,12463,.8662521E-4,.2123E-4,0
STARLINK-31349,2024-056X,2026-06-06T01:58:03.924768,15.27594838,.00008808,43.0042,91.4414,281.7662,78.3091,0,U,59317,999,12474,.88290911E-4,.2169E-4,0
STARLINK-31464,2024-056Y,2026-06-06T00:12:50.201568,15.27576974,.00016217,43.0034,91.7538,307.1835,52.8868,0,U,59318,999,12466,.54490514E-4,.1237E-4,0
STARLINK-31402,2024-057A,2026-06-05T18:40:29.278560,15.29557747,.00045319,43.0008,1.8748,269.4951,90.5382,0,U,59320,999,12384,.26969524E-2,.79457E-3,0
